TRITON-1                
1 39427U 13066M   26197.26579359  .00001488  00000+0  18222-3 0  9990
2 39427  97.8228 106.4089 0090644 138.6226 222.1900 14.81800158678397
GOMX-1                  
1 39430U 13066Q   26197.26064153  .00000614  00000+0  99114-4 0  9995
2 39430  97.6464  35.8884 0128171 344.7805  14.9561 14.69543802674188
CUBEBUG-2 (LO-74)       
1 39440U 13066AA  26197.26682240  .00002019  00000+0  18968-3 0  9997
2 39440  97.8916 146.3746 0055589 291.7136  67.8171 14.93971016681336
NEE-02 KRYSAOR          
1 39441U 13066AB  26197.28477696  .00001074  00000+0  12265-3 0  9991
2 39441  97.8897 136.2952 0065306 335.6922  24.1217 14.86741472680521
FUNCUBE-1 (AO-73)       
1 39444U 13066AE  26196.88912523  .00003677  00000+0  22787-3 0  9993
2 39444  97.8290 168.9436 0037989 105.4335 255.1095 15.09822727683990
UWE-3                   
1 39446U 13066AG  26196.82148462  .00001951  00000+0  17026-3 0  9995
2 39446  97.8715 153.0945 0047549 222.4036 137.3508 14.97201399681861
SMDC ONE 2.4            
1 39469U 13072H   26197.23818276  .00008557  00000+0  31966-3 0  9998
2 39469 120.4895 104.2984 0148145  49.6006 311.7892 15.18831054122246
COSMOS 2488 (RODNIK-S 7)
1 39483U 13076A   26197.25778326  .00000011  00000+0  11146-4 0  9997
2 39483  82.4856 150.5850 0020556  35.3702 324.8736 12.42906238569509
COSMOS 2489 (RODNIK-S 8)
1 39484U 13076B   26197.31409404 -.00000003  00000+0 -95702-4 0  9996
2 39484  82.4891 151.9382 0022374  34.9346 325.3197 12.42880070569561
COSMOS 2490 (RODNIK-S 9)
1 39485U 13076C   26197.28602178  .00000031  00000+0  14820-3 0  9996
2 39485  82.4839 150.0105 0022774  49.9185 310.3886 12.42879149569494
KAZEOSAT 1              
1 39731U 14024A   26197.30234529  .00000001  00000+0  13332-4 0  9993
2 39731  98.3202 269.0234 0001219  83.1868 276.9460 14.42037391642754
COSMOS 2496 (RODNIK-S *)
1 39761U 14028A   26197.24350097  .00000033  00000+0  16536-3 0  9995
2 39761  82.4455  90.5334 0020809  18.7359 341.4482 12.42879303551121
COSMOS 2497 (RODNIK-S *)
1 39762U 14028B   26197.29890797  .00000007  00000+0 -23086-4 0  9998
2 39762  82.4504  92.1997 0021264  13.6647 346.5004 12.42895073551139
COSMOS 2498 (RODNIK-S *)
1 39763U 14028C   26197.27449817  .00000094  00000+0  60570-3 0  9993
2 39763  82.4464  90.6895 0021984  13.2677 346.8977 12.42981096551169
HODOYOSHI-4             
1 40011U 14033B   26197.28291090  .00000869  00000+0  99504-4 0  9996
2 40011  97.5454  20.7024 0022689 205.6976 154.3116 14.88192359653138
UNISAT-6                
1 40012U 14033C   26196.97549731  .00001093  00000+0  12208-3 0  9995
2 40012  97.7909 349.1880 0044121 335.1542  24.7549 14.88368249650441
DEIMOS-2                
1 40013U 14033D   26197.25533737  .00000800  00000+0  80525-4 0  9990
2 40013  97.5786  70.7181 0001025 109.2615 250.8716 14.93796018642063
BUGSAT-1 (TITA)         
1 40014U 14033E   26197.28114001  .00004418  00000+0  23233-3 0  9994
2 40014  98.0434 291.5373 0028927  82.3655 278.0860 15.15888938660241
SAUDISAT 4              
1 40016U 14033G   26197.13152493  .00000212  00000+0  34846-4 0  9998
2 40016  97.7619 342.2713 0044177 340.9956  18.9605 14.79576020650352
APRIZESAT 9             
1 40018U 14033J   26197.18951335  .00000301  00000+0  51525-4 0  9999
2 40018  97.9096 329.6847 0067463 106.8088 254.0536 14.74253278647837
BRITE-CA1 (TORONTO)     
1 40020U 14033L   26196.84598904  .00000513  00000+0  84679-4 0  9994
2 40020  97.9773 325.2513 0078484 184.1727 175.8836 14.72723276646434
