OBJECT_NAME,OBJECT_ID,EPOCH,MEAN_MOTION,ECCENTRICITY,INCLINATION,RA_OF_ASC_NODE,ARG_OF_PERICENTER,MEAN_ANOMALY,EPHEMERIS_TYPE,CLASSIFICATION_TYPE,NORAD_CAT_ID,ELEMENT_SET_NO,REV_AT_EPOCH,BSTAR,MEAN_MOTION_DOT,MEAN_MOTION_DDOT
TRITON-1,2013-066M,2026-07-16T06:22:44.566176,14.81800158,.00906442,97.8228,106.4089,138.6226,222.1900,0,U,39427,999,67839,.18222205E-3,.1488E-4,0
GOMX-1,2013-066Q,2026-07-16T06:15:19.428192,14.69543802,.01281715,97.6464,35.8884,344.7805,14.9561,0,U,39430,999,67418,.99114136E-4,.614E-5,0
CUBEBUG-2 (LO-74),2013-066AA,2026-07-16T06:24:13.455360,14.93971016,.00555899,97.8916,146.3746,291.7136,67.8171,0,U,39440,999,68133,.18967558E-3,.2019E-4,0
NEE-02 KRYSAOR,2013-066AB,2026-07-16T06:50:04.729344,14.86741472,.00653064,97.8897,136.2952,335.6922,24.1217,0,U,39441,999,68052,.12264937E-3,.1074E-4,0
FUNCUBE-1 (AO-73),2013-066AE,2026-07-15T21:20:20.419872,15.09822727,.00379895,97.8290,168.9436,105.4335,255.1095,0,U,39444,999,68399,.22786592E-3,.3677E-4,0
UWE-3,2013-066AG,2026-07-15T19:42:56.271168,14.97201399,.00475492,97.8715,153.0945,222.4036,137.3508,0,U,39446,999,68186,.1702564E-3,.1951E-4,0
SMDC ONE 2.4,2013-072H,2026-07-16T05:42:58.990464,15.18831054,.01481457,120.4895,104.2984,49.6006,311.7892,0,U,39469,999,12224,.31965784E-3,.8557E-4,0
COSMOS 2488 (RODNIK-S 7),2013-076A,2026-07-16T06:11:12.473664,12.42906238,.00205563,82.4856,150.5850,35.3702,324.8736,0,U,39483,999,56950,.1114585E-4,.11E-6,0
COSMOS 2489 (RODNIK-S 8),2013-076B,2026-07-16T07:32:17.725056,12.42880070,.00223742,82.4891,151.9382,34.9346,325.3197,0,U,39484,999,56956,-.95701792E-4,-.3E-7,0
COSMOS 2490 (RODNIK-S 9),2013-076C,2026-07-16T06:51:52.281792,12.42879149,.00227742,82.4839,150.0105,49.9185,310.3886,0,U,39485,999,56949,.14820216E-3,.31E-6,0
KAZEOSAT 1,2014-024A,2026-07-16T07:15:22.633056,14.42037391,.00012199,98.3202,269.0234,83.1868,276.9460,0,U,39731,999,64275,.13331674E-4,.1E-7,0
COSMOS 2496 (RODNIK-S 10),2014-028A,2026-07-16T05:50:38.483808,12.42879303,.0020809,82.4455,90.5334,18.7359,341.4482,0,U,39761,999,55112,.16535611E-3,.33E-6,0
COSMOS 2497 (RODNIK-S 11),2014-028B,2026-07-16T07:10:25.648608,12.42895073,.00212646,82.4504,92.1997,13.6647,346.5004,0,U,39762,999,55113,-.23086317E-4,.7E-7,0
COSMOS 2498 (RODNIK-S 12),2014-028C,2026-07-16T06:35:16.641888,12.42981096,.00219848,82.4464,90.6895,13.2677,346.8977,0,U,39763,999,55116,.60569768E-3,.94E-6,0
HODOYOSHI-4,2014-033B,2026-07-16T06:47:23.501760,14.88192359,.00226893,97.5454,20.7024,205.6976,154.3116,0,U,40011,999,65313,.99504326E-4,.869E-5,0
UNISAT-6,2014-033C,2026-07-15T23:24:42.967584,14.88368249,.00441214,97.7909,349.1880,335.1542,24.7549,0,U,40012,999,65044,.12207531E-3,.1093E-4,0
DEIMOS-2,2014-033D,2026-07-16T06:07:41.148768,14.93796018,.00010255,97.5786,70.7181,109.2615,250.8716,0,U,40013,999,64206,.80524938E-4,.8E-5,0
BUGSAT-1 (TITA),2014-033E,2026-07-16T06:44:50.496864,15.15888938,.00289279,98.0434,291.5373,82.3655,278.0860,0,U,40014,999,66024,.23232784E-3,.4418E-4,0
SAUDISAT 4,2014-033G,2026-07-16T03:09:23.753952,14.79576020,.00441772,97.7619,342.2713,340.9956,18.9605,0,U,40016,999,65035,.34846362E-4,.212E-5,0
APRIZESAT 9,2014-033J,2026-07-16T04:32:53.953440,14.74253278,.00674635,97.9096,329.6847,106.8088,254.0536,0,U,40018,999,64783,.51525424E-4,.301E-5,0
BRITE-CA1 (TORONTO),2014-033L,2026-07-15T20:18:13.453056,14.72723276,.0078484,97.9773,325.2513,184.1727,175.8836,0,U,40020,999,64643,.84679E-4,.513E-5,0
